start=new Date('2021-12-25T00:00:00.000Z').valueOf();
sats=[{"TLE_LINE2":"2 48120  53.0553 225.8711 0002246  75.5658 284.5580 15.06387886 40956","EPOCH":"2021-12-24T22:32:49.456320","COUNTRY_CODE":"US","RCS_SIZE":"LARGE","CENTER_NAME":"EARTH","DECAY_DATE":null,"FILE":"3250462","MEAN_ELEMENT_THEORY":"SGP4","SEMIMAJOR_AXIS":"6925.386","GP_ID":"192396547","NORAD_CAT_ID":"48120","PERIAPSIS":"545.695","LAUNCH_DATE":"2021-04-07","OBJECT_NAME":"STARLINK-2460","MEAN_MOTION_DDOT":"0.0000000000000","CLASSIFICATION_TYPE":"U","ARG_OF_PERICENTER":"75.5658","MEAN_ANOMALY":"284.5580","APOAPSIS":"548.806","REF_FRAME":"TEME","RA_OF_ASC_NODE":"225.8711","PERIOD":"95.593","TLE_LINE1":"1 48120U 21027AE  21358.93946130  .00002130  00000-0  16194-3 0  9991","OBJECT_TYPE":"PAYLOAD","MEAN_MOTION":"15.06387886","MEAN_MOTION_DOT":"0.00002130","INCLINATION":"53.0553","REV_AT_EPOCH":"4095","ELEMENT_SET_NO":"999","BSTAR":"0.00016194000000","EPHEMERIS_TYPE":"0","SITE":"AFETR","ECCENTRICITY":"0.00022460","TIME_SYSTEM":"UTC","OBJECT_ID":"2021-027AE"},{"DECAY_DATE":null,"MEAN_ELEMENT_THEORY":"SGP4","FILE":"3250462","COUNTRY_CODE":"US","TLE_LINE2":"2 48121  53.0538 215.9989 0002487  78.0461 282.0807 15.06397664 41078","EPOCH":"2021-12-24T21:51:41.627808","CENTER_NAME":"EARTH","RCS_SIZE":"LARGE","CLASSIFICATION_TYPE":"U","MEAN_MOTION_DDOT":"0.0000000000000","MEAN_ANOMALY":"282.0807","APOAPSIS":"548.943","ARG_OF_PERICENTER":"78.0461","GP_ID":"192396797","SEMIMAJOR_AXIS":"6925.356","OBJECT_NAME":"STARLINK-2462","LAUNCH_DATE":"2021-04-07","PERIAPSIS":"545.498","NORAD_CAT_ID":"48121","OBJECT_TYPE":"PAYLOAD","MEAN_MOTION":"15.06397664","RA_OF_ASC_NODE":"215.9989","REF_FRAME":"TEME","TLE_LINE1":"1 48121U 21027AF  21358.91089847  .00004029  00000-0  28924-3 0  9996","PERIOD":"95.592","EPHEMERIS_TYPE":"0","BSTAR":"0.00028924000000","ELEMENT_SET_NO":"999","REV_AT_EPOCH":"4107","INCLINATION":"53.0538","TIME_SYSTEM":"UTC","OBJECT_ID":"2021-027AF","ECCENTRICITY":"0.00024870","SITE":"AFETR","MEAN_MOTION_DOT":"0.00004029"},{"MEAN_MOTION":"15.06384069","OBJECT_TYPE":"PAYLOAD","TLE_LINE1":"1 48122U 21027AG  21358.91225927  .00001773  00000-0  13795-3 0  9991","PERIOD":"95.593","RA_OF_ASC_NODE":"210.9883","REF_FRAME":"TEME","TIME_SYSTEM":"UTC","OBJECT_ID":"2021-027AG","SITE":"AFETR","ECCENTRICITY":"0.00023270","BSTAR":"0.00013795000000","EPHEMERIS_TYPE":"0","ELEMENT_SET_NO":"999","REV_AT_EPOCH":"4115","INCLINATION":"53.0545","MEAN_MOTION_DOT":"0.00001773","MEAN_ELEMENT_THEORY":"SGP4","FILE":"3250462","DECAY_DATE":null,"CENTER_NAME":"EARTH","RCS_SIZE":"LARGE","TLE_LINE2":"2 48122  53.0545 210.9883 0002327  74.1225 286.0020 15.06384069 41158","EPOCH":"2021-12-24T21:53:39.200928","COUNTRY_CODE":"US","APOAPSIS":"548.874","MEAN_ANOMALY":"286.0020","ARG_OF_PERICENTER":"74.1225","CLASSIFICATION_TYPE":"U","MEAN_MOTION_DDOT":"0.0000000000000","OBJECT_NAME":"STARLINK-2463","LAUNCH_DATE":"2021-04-07","PERIAPSIS":"545.651","NORAD_CAT_ID":"48122","GP_ID":"192398048","SEMIMAJOR_AXIS":"6925.397"},{"MEAN_MOTION_DOT":"0.00000038","SITE":"AFETR","ECCENTRICITY":"0.00026510","TIME_SYSTEM":"UTC","OBJECT_ID":"2021-027AH","BSTAR":"0.00002150800000","EPHEMERIS_TYPE":"0","REV_AT_EPOCH":"4121","INCLINATION":"53.0542","ELEMENT_SET_NO":"999","TLE_LINE1":"1 48123U 21027AH  21358.85283126  .00000038  00000-0  21508-4 0  9995","PERIOD":"95.593","RA_OF_ASC_NODE":"206.2490","REF_FRAME":"TEME","MEAN_MOTION":"15.06391982","OBJECT_TYPE":"PAYLOAD","LAUNCH_DATE":"2021-04-07","OBJECT_NAME":"STARLINK-2464","PERIAPSIS":"545.402","NORAD_CAT_ID":"48123","GP_ID":"192398299","SEMIMAJOR_AXIS":"6925.373","ARG_OF_PERICENTER":"81.3180","APOAPSIS":"549.074","MEAN_ANOMALY":"278.8109","CLASSIFICATION_TYPE":"U","MEAN_MOTION_DDOT":"0.0000000000000","RCS_SIZE":"LARGE","CENTER_NAME":"EARTH","TLE_LINE2":"2 48123  53.0542 206.2490 0002651  81.3180 278.8109 15.06391982 41214","COUNTRY_CODE":"US","EPOCH":"2021-12-24T20:28:04.620864","MEAN_ELEMENT_THEORY":"SGP4","FILE":"3250462","DECAY_DATE":null},{"OBJECT_ID":"2021-027AJ","TIME_SYSTEM":"UTC","SITE":"AFETR","ECCENTRICITY":"0.00022550","ELEMENT_SET_NO":"999","INCLINATION":"53.0543","REV_AT_EPOCH":"4107","EPHEMERIS_TYPE":"0","BSTAR":"0.00026485000000","MEAN_MOTION_DOT":"0.00003666","MEAN_MOTION":"15.06402420","OBJECT_TYPE":"PAYLOAD","PERIOD":"95.592","TLE_LINE1":"1 48124U 21027AJ  21358.91825906  .00003666  00000-0  26485-3 0  9999","REF_FRAME":"TEME","RA_OF_ASC_NODE":"215.9743","APOAPSIS":"548.768","MEAN_ANOMALY":"285.6552","ARG_OF_PERICENTER":"74.4686","MEAN_MOTION_DDOT":"0.0000000000000","CLASSIFICATION_TYPE":"U","PERIAPSIS":"545.644","NORAD_CAT_ID":"48124","OBJECT_NAME":"STARLINK-2465","LAUNCH_DATE":"2021-04-07","SEMIMAJOR_AXIS":"6925.341","GP_ID":"192397047","FILE":"3250462","MEAN_ELEMENT_THEORY":"SGP4","DECAY_DATE":null,"CENTER_NAME":"EARTH","RCS_SIZE":"LARGE","COUNTRY_CODE":"US","TLE_LINE2":"2 48124  53.0543 215.9743 0002255  74.4686 285.6552 15.06402420 41070","EPOCH":"2021-12-24T22:02:17.582784"},{"PERIAPSIS":"545.593","NORAD_CAT_ID":"48125","LAUNCH_DATE":"2021-04-07","OBJECT_NAME":"STARLINK-2466","SEMIMAJOR_AXIS":"6925.328","GP_ID":"192397297","ARG_OF_PERICENTER":"79.1049","APOAPSIS":"548.793","MEAN_ANOMALY":"281.0200","MEAN_MOTION_DDOT":"0.0000000000000","CLASSIFICATION_TYPE":"U","RCS_SIZE":"LARGE","CENTER_NAME":"EARTH","TLE_LINE2":"2 48125  53.0537 226.0097 0002310  79.1049 281.0200 15.06406739 40948","EPOCH":"2021-12-24T21:48:58.760352","COUNTRY_CODE":"US","FILE":"3250462","MEAN_ELEMENT_THEORY":"SGP4","DECAY_DATE":null,"MEAN_MOTION_DOT":"0.00002982","ECCENTRICITY":"0.00023100","SITE":"AFETR","TIME_SYSTEM":"UTC","OBJECT_ID":"2021-027AK","INCLINATION":"53.0537","REV_AT_EPOCH":"4094","ELEMENT_SET_NO":"999","BSTAR":"0.00021901000000","EPHEMERIS_TYPE":"0","PERIOD":"95.592","TLE_LINE1":"1 48125U 21027AK  21358.90901343  .00002982  00000-0  21901-3 0  9997","REF_FRAME":"TEME","RA_OF_ASC_NODE":"226.0097","MEAN_MOTION":"15.06406739","OBJECT_TYPE":"PAYLOAD"},{"DECAY_DATE":null,"MEAN_ELEMENT_THEORY":"SGP4","FILE":"3250462","EPOCH":"2021-12-24T21:15:50.663520","TLE_LINE2":"2 48126  53.0537 206.1000 0002423  79.2954 280.8307 15.06390949 41225","COUNTRY_CODE":"US","CENTER_NAME":"EARTH","RCS_SIZE":"LARGE","CLASSIFICATION_TYPE":"U","MEAN_MOTION_DDOT":"0.0000000000000","MEAN_ANOMALY":"280.8307","APOAPSIS":"548.919","ARG_OF_PERICENTER":"79.2954","GP_ID":"192397549","SEMIMAJOR_AXIS":"6925.376","OBJECT_NAME":"STARLINK-2467","LAUNCH_DATE":"2021-04-07","PERIAPSIS":"545.563","NORAD_CAT_ID":"48126","OBJECT_TYPE":"PAYLOAD","MEAN_MOTION":"15.06390949","RA_OF_ASC_NODE":"206.1000","REF_FRAME":"TEME","TLE_LINE1":"1 48126U 21027AL  21358.88600305 -.00000282  00000-0 -17117-7 0  9990","PERIOD":"95.593","EPHEMERIS_TYPE":"0","BSTAR":"-0.00000001711700","ELEMENT_SET_NO":"999","INCLINATION":"53.0537","REV_AT_EPOCH":"4122","OBJECT_ID":"2021-027AL","TIME_SYSTEM":"UTC","SITE":"AFETR","ECCENTRICITY":"0.00024230","MEAN_MOTION_DOT":"-0.00000282"},{"TLE_LINE1":"1 48127U 21027AM  21358.94312850  .00001703  00000-0  13324-3 0  9992","PERIOD":"95.592","RA_OF_ASC_NODE":"225.8565","REF_FRAME":"TEME","MEAN_MOTION":"15.06397398","OBJECT_TYPE":"PAYLOAD","MEAN_MOTION_DOT":"0.00001703","ECCENTRICITY":"0.00024080","SITE":"AFETR","TIME_SYSTEM":"UTC","OBJECT_ID":"2021-027AM","BSTAR":"0.00013324000000","EPHEMERIS_TYPE":"0","INCLINATION":"53.0544","REV_AT_EPOCH":"4094","ELEMENT_SET_NO":"999","RCS_SIZE":"LARGE","CENTER_NAME":"EARTH","TLE_LINE2":"2 48127  53.0544 225.8565 0002408  73.4272 286.6981 15.06397398 40945","COUNTRY_CODE":"US","EPOCH":"2021-12-24T22:38:06.302400","MEAN_ELEMENT_THEORY":"SGP4","FILE":"3250462","DECAY_DATE":null,"LAUNCH_DATE":"2021-04-07","OBJECT_NAME":"STARLINK-2468","NORAD_CAT_ID":"48127","PERIAPSIS":"545.554","GP_ID":"192397800","SEMIMAJOR_AXIS":"6925.357","ARG_OF_PERICENTER":"73.4272","MEAN_ANOMALY":"286.6981","APOAPSIS":"548.889","CLASSIFICATION_TYPE":"U","MEAN_MOTION_DDOT":"0.0000000000000"},{"MEAN_MOTION_DDOT":"0.0000000000000","CLASSIFICATION_TYPE":"U","APOAPSIS":"549.522","MEAN_ANOMALY":"258.3493","ARG_OF_PERICENTER":"101.7868","SEMIMAJOR_AXIS":"6925.362","GP_ID":"192396548","PERIAPSIS":"544.931","NORAD_CAT_ID":"48128","OBJECT_NAME":"STARLINK-2469","LAUNCH_DATE":"2021-04-07","DECAY_DATE":null,"FILE":"3250462","MEAN_ELEMENT_THEORY":"SGP4","EPOCH":"2021-12-24T20:22:44.009472","TLE_LINE2":"2 48128  53.0564 156.2595 0003315 101.7868 258.3493 15.06395727 41907","COUNTRY_CODE":"US","CENTER_NAME":"EARTH","RCS_SIZE":"LARGE","ELEMENT_SET_NO":"999","REV_AT_EPOCH":"4190","INCLINATION":"53.0564","EPHEMERIS_TYPE":"0","BSTAR":"-0.00002269000000","OBJECT_ID":"2021-027AN","TIME_SYSTEM":"UTC","ECCENTRICITY":"0.00033150","SITE":"AFETR","MEAN_MOTION_DOT":"-0.00000620","OBJECT_TYPE":"PAYLOAD","MEAN_MOTION":"15.06395727","REF_FRAME":"TEME","RA_OF_ASC_NODE":"156.2595","PERIOD":"95.592","TLE_LINE1":"1 48128U 21027AN  21358.84912048 -.00000620  00000-0 -22690-4 0  9993"},{"REF_FRAME":"TEME","RA_OF_ASC_NODE":"225.8875","PERIOD":"95.592","TLE_LINE1":"1 48129U 21027AP  21358.93576195  .00003780  00000-0  27253-3 0  9990","OBJECT_TYPE":"PAYLOAD","MEAN_MOTION":"15.06402781","MEAN_MOTION_DOT":"0.00003780","REV_AT_EPOCH":"4094","INCLINATION":"53.0543","ELEMENT_SET_NO":"999","BSTAR":"0.00027253000000","EPHEMERIS_TYPE":"0","ECCENTRICITY":"0.00022450","SITE":"AFETR","OBJECT_ID":"2021-027AP","TIME_SYSTEM":"UTC","EPOCH":"2021-12-24T22:27:29.832480","TLE_LINE2":"2 48129  53.0543 225.8875 0002245  74.7789 285.3448 15.06402781 40943","COUNTRY_CODE":"US","RCS_SIZE":"LARGE","CENTER_NAME":"EARTH","DECAY_DATE":null,"FILE":"3250462","MEAN_ELEMENT_THEORY":"SGP4","SEMIMAJOR_AXIS":"6925.340","GP_ID":"192396798","NORAD_CAT_ID":"48129","PERIAPSIS":"545.650","LAUNCH_DATE":"2021-04-07","OBJECT_NAME":"STARLINK-2471","MEAN_MOTION_DDOT":"0.0000000000000","CLASSIFICATION_TYPE":"U","ARG_OF_PERICENTER":"74.7789","APOAPSIS":"548.760","MEAN_ANOMALY":"285.3448"}];
